[Satellite]
VERSION=1.1
NAME=GLOBALSTAR M047
NICKNAME=GLOBALSTAR M047
TLE1=1 25772U 99031C   15053.62524277 -.00000059  00000-0  27690-3 0  9996
TLE2=2 25772  51.9830  89.0235 0016065 271.8901 235.9101 11.31880967719253
